{
    "links": {
        "self": "http://www.neowsapp.com/rest/v1/neo/3401901?api_key=iIulBulltgU6a56xZRHN4H3l9WmuAYTsLGpBGhQ2"
    },
    "id": "3401901",
    "neo_reference_id": "3401901",
    "name": "(2008 CY4)",
    "designation": "2008 CY4",
    "nasa_jpl_url": "http://ssd.jpl.nasa.gov/sbdb.cgi?sstr=3401901",
    "absolute_magnitude_h": 22.4,
    "estimated_diameter": {
        "kilometers": {
            "estimated_diameter_min": 0.0880146521,
            "estimated_diameter_max": 0.1968067451
        },
        "meters": {
            "estimated_diameter_min": 88.0146520901,
            "estimated_diameter_max": 196.8067450894
        },
        "miles": {
            "estimated_diameter_min": 0.0546897524,
            "estimated_diameter_max": 0.122290004
        },
        "feet": {
            "estimated_diameter_min": 288.7619911632,
            "estimated_diameter_max": 645.6914415591
        }
    },
    "is_potentially_hazardous_asteroid": false,
    "close_approach_data": [
        {
            "close_approach_date": "2008-02-13",
            "close_approach_date_full": "2008-Feb-13 23:27",
            "epoch_date_close_approach": 1202945220000,
            "relative_velocity": {
                "kilometers_per_second": "11.6025017515",
                "kilometers_per_hour": "41769.0063052751",
                "miles_per_hour": "25953.6361678527"
            },
            "miss_distance": {
                "astronomical": "0.1481151632",
                "lunar": "57.6167984848",
                "kilometers": "22157712.929422384",
                "miles": "13768164.3760775392"
            },
            "orbiting_body": "Earth"
        }
    ],
    "orbital_data": {
        "orbit_id": "11",
        "orbit_determination_date": "2017-04-06 09:04:31",
        "first_observation_date": "2008-02-06",
        "last_observation_date": "2008-02-16",
        "data_arc_in_days": 10,
        "observations_used": 62,
        "orbit_uncertainty": "8",
        "minimum_orbit_intersection": ".145924",
        "jupiter_tisserand_invariant": "3.851",
        "epoch_osculation": "2454503.5",
        "eccentricity": ".4200076213811061",
        "semi_major_axis": "1.838229718509023",
        "inclination": "18.96632571524141",
        "ascending_node_longitude": "132.1506359263337",
        "orbital_period": "910.328420023415",
        "perihelion_distance": "1.066159226885988",
        "perihelion_argument": "43.502722759805",
        "aphelion_distance": "2.610300210132058",
        "perihelion_time": "2454541.342882720692",
        "mean_anomaly": "345.0345902865488",
        "mean_motion": ".395461673041846",
        "equinox": "J2000",
        "orbit_class": {
            "orbit_class_type": "AMO",
            "orbit_class_description": "Near-Earth asteroid orbits similar to that of 1221 Amor",
            "orbit_class_range": "1.017 AU < q (perihelion) < 1.3 AU"
        }
    },
    "is_sentry_object": false
}